RADUGA 1 [-]            
1 08513U 75123A   23150.85323189 -.00000129  00000+0  00000+0 0  9996
2 08513   5.6734 283.7387 0007407 219.8531 132.0940  1.00293702183644
RADUGA 2 [-]            
1 09416U 76092A   23150.90471875 -.00000147  00000+0  00000+0 0  9997
2 09416   6.3393 285.8077 0025928   9.0357   2.2011  1.00253150118185
RADUGA 3 [-]            
1 10159U 77071A   23150.59217358  .00000164  00000+0  00000+0 0  9998
2 10159   6.9618 288.5422 0008898 238.7999 331.3278  1.00242141165878
RADUGA 4 [-]            
1 10987U 78073A   23150.91422244 -.00000283  00000+0  00000+0 0  9991
2 10987   7.5967 292.2211 0007698  14.8478   7.3539  1.00332743108449
RADUGA 5 [-]            
1 11343U 79035A   23150.64839418  .00000006  00000+0  00000+0 0  9994
2 11343   8.0647 295.1176 0007221 174.7141  77.6688  1.00258368118181
RADUGA 6 [-]            
1 11708U 80016A   23150.86835112 -.00000331  00000+0  00000+0 0  9993
2 11708   8.4358 298.3269 0002971 188.5605 181.1619  1.00263761110980
RADUGA 7 [-]            
1 12003U 80081A   23151.15527413 -.00000248  00000+0  00000+0 0  9996
2 12003   8.6280 300.3605 0008424 264.3974  61.8007  1.00229251112257
RADUGA 8 [-]            
1 12351U 81027A   23150.62208705  .00000102  00000+0  00000+0 0  9992
2 12351   8.9636 300.9073 0081334 237.0510 120.6011  1.00360906111363
RADUGA 9 [-]            
1 12618U 81069A   23151.46728330 -.00000352  00000+0  00000+0 0  9996
2 12618   9.1959 304.0275 0005277 152.5368  74.2946  1.00280113117170
RADUGA 10 [-]           
1 12897U 81102A   23150.93104855 -.00000076  00000+0  00000+0 0  9997
2 12897   9.2880 305.0641 0006336 181.5420 171.3160  1.00247851106176
RADUGA 11 [-]           
1 13669U 82113A   23151.01163448 -.00000029  00000+0  00000+0 0  9999
2 13669  11.4148 319.2707 0037889 261.2907  98.0590  0.97707796110653
RADUGA 12 [-]           
1 13974U 83028A   23150.90301179 -.00000184  00000+0  00000+0 0  9998
2 13974  10.4960 315.1125 0003608 120.1210 222.3602  1.00280717158218
RADUGA 13 [-]           
1 14307U 83088A   23151.17105281 -.00000018  00000+0  00000+0 0  9997
2 14307  11.6787 320.7877 0015627  51.9304 204.0783  0.98172907108000
RADUGA 14 [-]           
1 14725U 84016A   23150.64812561 -.00000024  00000+0  00000+0 0  9997
2 14725  10.7334 319.0107 0006407 140.2838  89.7655  1.00251224106939
RADUGA 15 [-]           
1 15057U 84063A   23150.90896213 -.00000248  00000+0  00000+0 0  9991
2 15057  10.8608 319.9971 0006386 160.5947 188.7052  1.00173794129934
RADUGA 16 [-]           
1 15946U 85070A   23151.20510479 -.00000125  00000+0  00000+0 0  9992
2 15946  11.3686 324.7399 0003004 156.8856  96.9005  1.00381232111063
RADUGA 17 [-]           
1 16250U 85107A   23151.37132786 -.00000055  00000+0  00000+0 0  9993
2 16250  11.5031 326.1678 0014767 186.4637  38.5090  1.00191179140650
RADUGA 18 [-]           
1 16497U 86007A   23150.27636726 -.00000074  00000+0  00000+0 0  9998
2 16497  12.3319 328.9357 0076031 171.8746  46.3737  0.98813934134852
RADUGA 19 [-]           
1 17046U 86082A   23150.50275833 -.00000229  00000+0  00000+0 0  9998
2 17046  12.8001 332.9319 0014755 152.1982 106.3010  0.98462726131989
RADUGA 20 [-]           
1 17611U 87028A   23151.19597412 -.00000133  00000+0  00000+0 0  9997
2 17611  14.8408 336.3967 0032075 143.4286  28.6813  0.95961972127618
RADUGA 21 [-]           
1 18631U 87100A   23151.12961368 -.00000198  00000+0  00000+0 0  9990
2 18631  12.9036 333.6122 0004310 136.1552  94.8150  1.00358102129912
RADUGA 22 [-]           
1 19596U 88095A   23150.64562574  .00000137  00000+0  00000+0 0  9999
2 19596  12.9338 338.0428 0009101 142.0175  37.0300  1.00191042110482
RADUGA 23 [-]           
1 19928U 89030A   23150.87188829 -.00000365  00000+0  00000+0 0  9994
2 19928  13.1023 339.8575 0022460 167.3070 169.3051  1.00310088123685
RADUGA-1 1 [-]          
1 20083U 89048A   23150.46785456 -.00000156  00000+0  00000+0 0  9999
2 20083  13.8883 342.9791 0023471 123.3349 252.4740  0.98709090120271
RADUGA 24 [-]           
1 20367U 89098A   23150.79025833  .00000064  00000+0  00000+0 0  9998
2 20367  13.7057 342.0610 0002757 146.1235  98.6960  1.00320731121876
RADUGA 25 [-]           
1 20499U 90016A   23150.36317500  .00000114  00000+0  00000+0 0  9990
2 20499  13.4822 342.7749 0006488 142.7366  95.9318  1.00213478121776
RADUGA 26 [-]           
1 21016U 90112A   23151.03404948 -.00000288  00000+0  00000+0 0  9994
2 21016  13.8330 346.0173 0008258 103.3386 267.8833  1.00265037119081
RADUGA-1 2 [-]          
1 21038U 90116A   23150.85006274 -.00000224  00000+0  00000+0 0  9991
2 21038  13.8742 346.0857 0009344 112.3305 182.9308  1.00323480118742
RADUGA 27 [-]           
1 21132U 91014A   23150.89955084 -.00000197  00000+0  00000+0 0  9999
2 21132  14.3787 345.5206 0004803 107.6037 201.6662  1.00377652118144
RADUGA 28 [-]           
1 21821U 91087A   23150.63995883  .00000132  00000+0  00000+0 0  9995
2 21821  14.1919 349.3563 0008857 128.2732  32.3216  1.00251931115159
RADUGA 29 [-]           
1 22557U 93013A   23150.96795618 -.00000357  00000+0  00000+0 0  9993
2 22557  14.4487 353.5170 0008097 119.9471 247.9230  1.00324979110533
RADUGA 30 [-]           
1 22836U 93062A   23150.77536828 -.00000060  00000+0  00000+0 0  9993
2 22836  14.5165 355.5153 0001365  63.9603 178.0395  1.00281233 34835
RADUGA-1 3 [-]          
1 22981U 94008A   23150.84825413  .00000086  00000+0  00000+0 0  9991
2 22981  14.6087 356.6598 0005307 109.4449 139.2448  1.00246124107344
RADUGA 31 [-]           
1 23010U 94012A   23150.91774287 -.00000341  00000+0  00000+0 0  9995
2 23010  14.5765 356.6511 0006445 107.1002 220.3652  1.00274498107185
RADUGA 32 [-]           
1 23448U 94087A   23150.77533240 -.00000064  00000+0  00000+0 0  9990
2 23448  14.5968 359.3882 0004921 195.6982  42.8043  1.00278786121712
RADUGA-1 4 [-]          
1 25642U 99010A   23151.03544411 -.00000335  00000+0  00000+0 0  9992
2 25642  15.3154  10.8325 0000477 149.3634 204.0540  1.00327610 88817
RADUGA-1 5 [-]          
1 26477U 00049A   23150.90148838 -.00000268  00000+0  00000+0 0  9996
2 26477  13.3284  16.0410 0006244  70.6624 218.6834  1.00327532 83255
RADUGA-1 6 [-]          
1 26936U 01045A   23151.40961198 -.00000160  00000+0  00000+0 0  9992
2 26936  13.5803  22.4463 0016297 167.5334  27.6951  0.97745991 77705
RADUGA-1 7 [-]          
1 28194U 04010A   23150.79561850  .00000133  00000+0  00000+0 0  9996
2 28194  12.3731  29.1910 0001983 142.3216  46.7374  1.00188497 70258
RADUGA-1M 1 [-]         
1 32373U 07058A   23151.04991347 -.00000127  00000+0  00000+0 0  9996
2 32373   7.6711  61.5338 0004946  12.6296   8.5498  0.99401213 57259
RADUGA-1 8 [-]          
1 34264U 09010A   23151.33475458 -.00000071  00000+0  00000+0 0  9997
2 34264   9.9130  51.4023 0014283  10.6656 210.1914  0.99816982 52052
RADUGA-1M 2 [+]         
1 36358U 10002A   23150.92549440 -.00000165  00000+0  00000+0 0  9997
2 36358   0.7317  94.1532 0003542 342.4584 229.7402  1.00272215 38921
RADUGA-1M 3 [+]         
1 39375U 13062A   23151.37688015  .00000175  00000+0  00000+0 0  9990
2 39375   3.1126  85.8112 0001746 233.0045 100.4514  1.00273522 34961
